QIANFAN-25              
1 61558U 24185G   25304.80105176  .00000659  00000+0  39460-3 0  9991
2 61558  88.9780  82.9282 0010803  79.0790 281.1607 14.05848047 63614
QIANFAN-26              
1 61559U 24185H   25304.84450103  .00000371  00000+0  35848-3 0  9996
2 61559  88.9779  84.2657 0007188 129.0074 231.1733 13.77776415 62900
QIANFAN-27              
1 61560U 24185J   25304.82427025  .00000768  00000+0  30805-3 0  9991
2 61560  88.9776  81.8509 0009876  73.1452 287.0825 14.27250399 64181
QIANFAN-28              
1 61561U 24185K   25304.82628131  .00001351  00000+0  53978-3 0  9998
2 61561  88.9794  81.8504 0009044  73.5254 286.6934 14.27898908 64199
QIANFAN-29              
1 61562U 24185L   25304.81923058  .00000240  00000+0  35259-3 0  9992
2 61562  88.9754  85.6359 0010676 163.7302 196.4194 13.50989298 62131
QIANFAN-30              
1 61563U 24185M   25304.83648905  .00000228  00000+0  34025-3 0  9996
2 61563  88.9775  85.1434 0008548 147.6972 212.4703 13.49965728 62419
QIANFAN-31              
1 61564U 24185N   25304.82979762  .00000286  00000+0  37949-3 0  9996
2 61564  88.9760  85.0125 0008265 143.3942 216.7779 13.57940557 62474
QIANFAN-32              
1 61565U 24185P   25304.82807963  .00000187  00000+0  27247-3 0  9990
2 61565  88.9817  85.2657 0009632 174.3220 185.8042 13.50716726 62383
